NORAD_CAT_ID,OBJECT_NAME,OBJECT_TYPE,EPOCH,MEAN_MOTION,ECCENTRICITY,INCLINATION,RA_OF_ASC_NODE,ARG_OF_PERICENTER,MEAN_ANOMALY,BSTAR,MEAN_MOTION_DOT,MEAN_MOTION_DDOT,TLE_LINE0,TLE_LINE1,TLE_LINE2,SEMIMAJOR_AXIS,PERIOD,APOGEE,PERIGEE,DECAYED
49176.0,STARLINK-3069,PAYLOAD,2024-07-13 14:15:37,14.98326831,0.0002971,70.0015,337.5938,272.6787,87.4032,-6.3011e-05,-8.45e-06,0.0,0 STARLINK-3069,1 49176U 21082AY  24195.59418405 -.00000845  00000-0 -63011-4 0  9991,2 49176  70.0015 337.5938 0002971 272.6787  87.4032 14.98326831156470,6950.203,96.107,574.133,570.003,0.0
49176.0,STARLINK-3069,PAYLOAD,2024-07-13 19:04:01,14.98329379,0.0003073,70.0014,337.0889,271.6182,88.4625,-3.4674e-05,-5.07e-06,0.0,0 STARLINK-3069,1 49176U 21082AY  24195.79446163 -.00000507  00000-0 -34674-4 0  9993,2 49176  70.0014 337.0889 0003073 271.6182  88.4625 14.98329379156504,6950.195,96.107,574.196,569.924,0.0
49176.0,STARLINK-3069,PAYLOAD,2024-07-14 03:04:41,14.98330015,0.000308,70.0013,336.247,272.1411,87.9395,-2.8275e-05,-4.3e-06,0.0,0 STARLINK-3069,1 49176U 21082AY  24196.12826106 -.00000430  00000-0 -28275-4 0  9995,2 49176  70.0013 336.2470 0003080 272.1411  87.9395 14.98330015156551,6950.193,96.107,574.199,569.917,0.0
49176.0,STARLINK-3069,PAYLOAD,2024-07-14 14:17:37,14.983317,0.0003143,70.0012,335.0685,271.9753,88.1046,3.5315e-05,3.28e-06,0.0,0 STARLINK-3069,1 49176U 21082AY  24196.59557795  .00000328  00000-0  35315-4 0  9998,2 49176  70.0012 335.0685 0003143 271.9753  88.1046 14.98331700156627,6950.188,96.107,574.237,569.868,0.0
49176.0,STARLINK-3069,PAYLOAD,2024-07-14 19:06:01,14.98339314,0.0003084,70.0014,334.5628,270.0843,89.9963,9.4339e-05,1.033e-05,0.0,0 STARLINK-3069,1 49176U 21082AY  24196.79585057  .00001033  00000-0  94339-4 0  9997,2 49176  70.0014 334.5628 0003084 270.0843  89.9963 14.98339314156653,6950.164,96.106,574.173,569.886,0.0
49176.0,STARLINK-3069,PAYLOAD,2024-07-15 03:06:42,14.98338421,0.0003204,70.0015,333.7212,268.9843,91.0949,-0.0001431,-1.8e-05,0.0,0 STARLINK-3069,1 49176U 21082AY  24197.12965514 -.00001800  00000-0 -14310-3 0  9999,2 49176  70.0015 333.7212 0003204 268.9843  91.0949 14.98338421156706,6950.167,96.106,574.259,569.805,0.0
49176.0,STARLINK-3069,PAYLOAD,2024-07-15 12:43:31,14.98322481,0.0003063,70.0017,332.7116,273.0763,87.0046,3.3449e-05,3.06e-06,0.0,0 STARLINK-3069,1 49176U 21082AY  24197.53022214  .00000306  00000-0  33449-4 0  9998,2 49176  70.0017 332.7116 0003063 273.0763  87.0046 14.98322481156769,6950.216,96.107,574.21,569.952,0.0
49176.0,STARLINK-3069,PAYLOAD,2024-07-15 14:19:39,14.98322727,0.0003064,70.0017,332.5433,273.0732,87.0077,3.4956e-05,3.24e-06,0.0,0 STARLINK-3069,1 49176U 21082AY  24197.59698223  .00000324  00000-0  34956-4 0  9997,2 49176  70.0017 332.5433 0003064 273.0732  87.0077 14.98322727156774,6950.215,96.107,574.21,569.951,0.0
49176.0,STARLINK-3069,PAYLOAD,2024-07-15 19:08:02,14.98336246,0.0003062,70.0016,332.0381,270.8478,89.233,0.00012213,1.365e-05,0.0,0 STARLINK-3069,1 49176U 21082AY  24197.79725063  .00001365  00000-0  12213-3 0  9999,2 49176  70.0016 332.0381 0003062 270.8478  89.2330 14.98336246156801,6950.174,96.107,574.167,569.91,0.0
49176.0,STARLINK-3069,PAYLOAD,2024-07-16 12:45:31,14.98329696,0.0003,70.0026,330.1888,268.3258,91.7557,5.0441e-06,-3.3e-07,0.0,0 STARLINK-3069,1 49176U 21082AY  24198.53161653 -.00000033  00000-0  50441-5 0  9990,2 49176  70.0026 330.1888 0003000 268.3258  91.7557 14.98329696156915,6950.194,96.107,574.144,569.974,0.0
49176.0,STARLINK-3069,PAYLOAD,2024-07-16 19:10:03,14.98332588,0.0003043,70.0028,329.5171,267.1213,92.9598,-3.9207e-05,-5.61e-06,0.0,0 STARLINK-3069,1 49176U 21082AY  24198.79865542 -.00000561  00000-0 -39207-4 0  9999,2 49176  70.0028 329.5171 0003043 267.1213  92.9598 14.98332588156955,6950.185,96.107,574.165,569.935,0.0
49176.0,STARLINK-3069,PAYLOAD,2024-07-17 12:47:33,14.98314658,0.0002904,70.0033,327.6659,267.3499,92.7328,-6.9934e-06,-1.76e-06,0.0,0 STARLINK-3069,1 49176U 21082AY  24199.53302916 -.00000176  00000-0 -69934-5 0  9996,2 49176  70.0033 327.6659 0002904 267.3499  92.7328 14.98314658157064,6950.24,96.108,574.124,570.087,0.0
49176.0,STARLINK-3069,PAYLOAD,2024-07-17 14:23:41,14.98312508,0.0002932,70.0032,327.498,265.8952,94.1872,-5.6587e-06,-1.6e-06,0.0,0 STARLINK-3069,1 49176U 21082AY  24199.59979098 -.00000160  00000-0 -56587-5 0  9996,2 49176  70.0032 327.4980 0002932 265.8952  94.1872 14.98312508157079,6950.247,96.108,574.15,570.074,0.0
49176.0,STARLINK-3069,PAYLOAD,2024-07-17 17:35:57,14.98317886,0.0002806,70.0029,327.1602,259.5087,100.5756,-2.3451e-05,-3.73e-06,0.0,0 STARLINK-3069,1 49176U 21082AY  24199.73330881 -.00000373  00000-0 -23451-4 0  9992,2 49176  70.0029 327.1602 0002806 259.5087 100.5756 14.98317886157091,6950.23,96.108,574.046,570.145,0.0
49176.0,STARLINK-3069,PAYLOAD,2024-07-18 12:49:34,14.98324232,0.0002939,70.0018,325.1392,263.8567,96.2257,-6.6326e-06,-1.72e-06,0.0,0 STARLINK-3069,1 49176U 21082AY  24200.53442730 -.00000172  00000-0 -66326-5 0  9996,2 49176  70.0018 325.1392 0002939 263.8567  96.2257 14.98324232157215,6950.211,96.107,574.118,570.033,0.0
49176.0,STARLINK-3069,PAYLOAD,2024-07-18 14:25:42,14.98325826,0.0003023,70.0014,324.9699,267.1118,92.9695,2.5248e-06,-6.3e-07,0.0,0 STARLINK-3069,1 49176U 21082AY  24200.60118647 -.00000063  00000-0  25248-5 0  9997,2 49176  70.0014 324.9699 0003023 267.1118  92.9695 14.98325826157222,6950.206,96.107,574.172,569.97,0.0
49176.0,STARLINK-3069,PAYLOAD,2024-07-18 17:37:58,14.98329628,0.0002958,70.0016,324.6335,268.6451,91.4369,4.8588e-05,4.87e-06,0.0,0 STARLINK-3069,1 49176U 21082AY  24200.73470337  .00000487  00000-0  48588-4 0  9998,2 49176  70.0016 324.6335 0002958 268.6451  91.4369 14.98329628157248,6950.194,96.107,574.115,570.003,0.0
49176.0,STARLINK-3069,PAYLOAD,2024-07-19 12:51:34,14.98330253,0.0002924,70.0015,322.6132,267.0261,93.0564,0.00014812,1.675e-05,0.0,0 STARLINK-3069,1 49176U 21082AY  24201.53582130  .00001675  00000-0  14812-3 0  9994,2 49176  70.0015 322.6132 0002924 267.0261  93.0564 14.98330253157369,6950.192,96.107,574.089,570.025,0.0
49176.0,STARLINK-3069,PAYLOAD,2024-07-19 14:27:43,14.98329227,0.0002963,70.0016,322.4449,268.0372,92.0448,0.00018409,2.104e-05,0.0,0 STARLINK-3069,1 49176U 21082AY  24201.60258109  .00002104  00000-0  18409-3 0  9992,2 49176  70.0016 322.4449 0002963 268.0372  92.0448 14.98329227157376,6950.195,96.107,574.12,570.001,0.0
49176.0,STARLINK-3069,PAYLOAD,2024-07-19 17:39:58,14.98337266,0.0003066,70.0012,322.109,269.3781,90.7026,0.00021964,2.529e-05,0.0,0 STARLINK-3069,1 49176U 21082AY  24201.73609508  .00002529  00000-0  21964-3 0  9990,2 49176  70.0012 322.1090 0003066 269.3781  90.7026 14.98337266157395,6950.17,96.107,574.166,569.904,0.0
49176.0,STARLINK-3069,PAYLOAD,2024-07-20 12:53:36,14.98329313,0.0002983,70.0014,320.0876,268.6428,91.4389,1.6884e-05,1.08e-06,0.0,0 STARLINK-3069,1 49176U 21082AY  24202.53722411  .00000108  00000-0  16884-4 0  9995,2 49176  70.0014 320.0876 0002983 268.6428  91.4389 14.98329313157511,6950.195,96.107,574.133,569.987,0.0
49176.0,STARLINK-3069,PAYLOAD,2024-07-20 14:29:44,14.98326671,0.0002955,70.0015,319.9186,270.2334,89.8486,0.00016966,1.932e-05,0.0,0 STARLINK-3069,1 49176U 21082AY  24202.60398158  .00001932  00000-0  16966-3 0  9996,2 49176  70.0015 319.9186 0002955 270.2334  89.8486 14.98326671157521,6950.203,96.107,574.122,570.014,0.0
49176.0,STARLINK-3069,PAYLOAD,2024-07-20 19:18:07,14.98337874,0.0003023,70.0013,319.414,270.3652,89.7161,7.408e-05,7.91e-06,0.0,0 STARLINK-3069,1 49176U 21082AY  24202.80425642  .00000791  00000-0  74080-4 0  9991,2 49176  70.0013 319.4140 0003023 270.3652  89.7161 14.98337874157554,6950.169,96.106,574.135,569.933,0.0
49176.0,STARLINK-3069,PAYLOAD,2024-07-21 01:42:40,14.98330594,0.0002879,70.0016,318.7399,266.8097,93.2733,-5.5258e-05,-7.52e-06,0.0,0 STARLINK-3069,1 49176U 21082AY  24203.07130385 -.00000752  00000-0 -55258-4 0  9993,2 49176  70.0016 318.7399 0002879 266.8097  93.2733 14.98330594157597,6950.191,96.107,574.057,570.055,0.0
49176.0,STARLINK-3069,PAYLOAD,2024-07-21 14:31:44,14.98334102,0.0003153,70.0011,317.3942,271.7009,88.3788,-0.00010296,-1.321e-05,0.0,0 STARLINK-3069,1 49176U 21082AY  24203.60538194 -.00001321  00000-0 -10296-3 0  9997,2 49176  70.0011 317.3942 0003153 271.7009  88.3788 14.98334102157678,6950.18,96.107,574.237,569.854,0.0
49176.0,STARLINK-3069,PAYLOAD,2024-07-21 17:44:00,14.98338311,0.0003198,70.0011,317.0577,271.5378,88.5415,-5.3408e-05,-7.3e-06,0.0,0 STARLINK-3069,1 49176U 21082AY  24203.73889733 -.00000730  00000-0 -53408-4 0  9995,2 49176  70.0011 317.0577 0003198 271.5378  88.5415 14.98338311157692,6950.167,96.106,574.255,569.81,0.0
49176.0,STARLINK-3069,PAYLOAD,2024-07-22 09:45:21,14.98324689,0.0003052,70.0014,315.3746,270.7867,89.2942,-3.554e-06,-1.35e-06,0.0,0 STARLINK-3069,1 49176U 21082AY  24204.40650388 -.00000135  00000-0 -35540-5 0  9999,2 49176  70.0014 315.3746 0003052 270.7867  89.2942 14.98324689157794,6950.209,96.107,574.196,569.953,0.0
49176.0,STARLINK-3069,PAYLOAD,2024-07-23 09:47:22,14.98334192,0.0003169,70.0011,312.8502,268.8227,91.2569,0.0001091,1.209e-05,0.0,0 STARLINK-3069,1 49176U 21082AY  24205.40789402  .00001209  00000-0  10910-3 0  9993,2 49176  70.0011 312.8502 0003169 268.8227  91.2569 14.98334192157945,6950.18,96.107,574.247,569.842,0.0
49176.0,STARLINK-3069,PAYLOAD,2024-07-23 17:48:01,14.98341985,0.0003102,70.0011,312.0091,263.3631,96.7175,0.00016869,1.921e-05,0.0,0 STARLINK-3069,1 49176U 21082AY  24205.74168556  .00001921  00000-0  16869-3 0  9991,2 49176  70.0011 312.0091 0003102 263.3631  96.7175 14.98341985157992,6950.156,96.106,574.177,569.865,0.0
49176.0,STARLINK-3069,PAYLOAD,2024-07-24 09:49:23,14.98331091,0.0002931,69.9968,310.3172,256.5501,103.5332,3.6549e-05,3.43e-06,0.0,0 STARLINK-3069,1 49176U 21082AY  24206.40929424  .00000343  00000-0  36549-4 0  9999,2 49176  69.9968 310.3172 0002931 256.5501 103.5332 14.98331091158091,6950.19,96.107,574.092,570.017,0.0
